NORAD_CAT_ID,OBJECT_NAME,OBJECT_TYPE,EPOCH,MEAN_MOTION,ECCENTRICITY,INCLINATION,RA_OF_ASC_NODE,ARG_OF_PERICENTER,MEAN_ANOMALY,BSTAR,MEAN_MOTION_DOT,MEAN_MOTION_DDOT,TLE_LINE0,TLE_LINE1,TLE_LINE2,SEMIMAJOR_AXIS,PERIOD,APOGEE,PERIGEE,DECAYED
53601.0,STARLINK-4675,PAYLOAD,2024-08-14 21:12:50,15.08839711,0.0001229,53.2163,290.9114,77.7233,282.3897,0.0010728,0.00016827,0.0,0 STARLINK-4675,1 53601U 22104P   24227.88391729  .00016827  00000-0  10728-2 0  9992,2 53601  53.2163 290.9114 0001229  77.7233 282.3897 15.08839711109299,6917.881,95.438,540.596,538.896,0.0
53601.0,STARLINK-4675,PAYLOAD,2024-08-15 09:55:55,15.08842422,0.0001328,53.2167,288.5337,82.3136,277.8007,0.00057558,8.885e-05,0.0,0 STARLINK-4675,1 53601U 22104P   24228.41383920  .00008885  00000-0  57558-3 0  9994,2 53601  53.2167 288.5337 0001328  82.3136 277.8007 15.08842422109371,6917.873,95.437,540.657,538.819,0.0
53601.0,STARLINK-4675,PAYLOAD,2024-08-15 21:03:37,15.08852327,0.0001338,53.2162,286.4519,79.305,280.8093,0.00072752,0.00011313,0.0,0 STARLINK-4675,1 53601U 22104P   24228.87751702  .00011313  00000-0  72752-3 0  9994,2 53601  53.2162 286.4519 0001338  79.3050 280.8093 15.08852327108752,6917.843,95.437,540.633,538.782,0.0
53601.0,STARLINK-4675,PAYLOAD,2024-08-16 09:46:42,15.08839707,0.0001373,53.2161,284.0733,81.7542,278.3606,0.00022258,3.256e-05,0.0,0 STARLINK-4675,1 53601U 22104P   24229.40743940  .00003256  00000-0  22258-3 0  9992,2 53601  53.2161 284.0733 0001373  81.7542 278.3606 15.08839707108833,6917.881,95.438,540.696,538.796,0.0
53601.0,STARLINK-4675,PAYLOAD,2024-08-17 12:48:15,15.08848998,0.0001557,53.2165,279.0172,78.1782,281.9384,0.00025664,3.8e-05,0.0,0 STARLINK-4675,1 53601U 22104P   24230.53351724  .00003800  00000-0  25664-3 0  9992,2 53601  53.2165 279.0172 0001557  78.1782 281.9384 15.08848998109003,6917.853,95.437,540.795,538.641,0.0
53601.0,STARLINK-4675,PAYLOAD,2024-08-18 09:28:17,15.08836901,0.0001631,53.2173,275.1515,117.1581,242.9577,2.3944e-05,9.3e-07,0.0,0 STARLINK-4675,1 53601U 22104P   24231.39464175  .00000093  00000-0  23944-4 0  9993,2 53601  53.2173 275.1515 0001631 117.1581 242.9577 15.08836901109130,6917.89,95.438,540.883,538.627,0.0
53601.0,STARLINK-4675,PAYLOAD,2024-08-19 09:19:04,15.08838195,0.0001527,53.2171,270.6913,97.3607,262.7558,2.7338e-05,1.47e-06,0.0,0 STARLINK-4675,1 53601U 22104P   24232.38824516  .00000147  00000-0  27338-4 0  9993,2 53601  53.2171 270.6913 0001527  97.3607 262.7558 15.08838195109970,6917.886,95.438,540.807,538.695,0.0
53601.0,STARLINK-4675,PAYLOAD,2024-08-20 02:48:20,15.08821056,0.0001408,53.2163,267.4211,94.9122,265.2031,4.0063e-05,3.49e-06,0.0,0 STARLINK-4675,1 53601U 22104P   24233.11690068  .00000349  00000-0  40063-4 0  9992,2 53601  53.2163 267.4211 0001408  94.9122 265.2031 15.08821056109397,6917.938,95.439,540.777,538.829,0.0
53601.0,STARLINK-4675,PAYLOAD,2024-08-20 10:45:15,15.08825296,0.0001504,53.2173,265.9345,92.2076,267.9088,8.102e-05,1.001e-05,0.0,0 STARLINK-4675,1 53601U 22104P   24233.44810155  .00001001  00000-0  81020-4 0  9993,2 53601  53.2173 265.9345 0001504  92.2076 267.9088 15.08825296110130,6917.925,95.438,540.831,538.75,0.0
53601.0,STARLINK-4675,PAYLOAD,2024-08-21 02:39:06,15.0884376,0.0001317,53.2158,262.9574,87.7536,272.3607,0.00012499,1.702e-05,0.0,0 STARLINK-4675,1 53601U 22104P   24234.11049130  .00001702  00000-0  12499-3 0  9996,2 53601  53.2158 262.9574 0001317  87.7536 272.3607 15.08843760109542,6917.869,95.437,540.645,538.823,0.0
53601.0,STARLINK-4675,PAYLOAD,2024-08-21 07:25:15,15.08848781,0.0001377,53.2159,262.0661,89.5459,270.569,0.00018064,2.589e-05,0.0,0 STARLINK-4675,1 53601U 22104P   24234.30920786  .00002589  00000-0  18064-3 0  9990,2 53601  53.2159 262.0661 0001377  89.5459 270.5690 15.08848781110262,6917.854,95.437,540.671,538.766,0.0
